[{"OBJECT_NAME":"STARLINK-31091","OBJECT_ID":"2023-203M","EPOCH":"2025-09-20T03:35:56.923296","MEAN_MOTION":15.25912319,"ECCENTRICITY":0.00015667,"INCLINATION":43.0009,"RA_OF_ASC_NODE":313.3083,"ARG_OF_PERICENTER":279.1581,"MEAN_ANOMALY":80.9093,"EPHEMERIS_TYPE":0,"CLASSIFICATION_TYPE":"U","NORAD_CAT_ID":58629,"ELEMENT_SET_NO":999,"REV_AT_EPOCH":9744,"BSTAR":2.9180515e-5,"MEAN_MOTION_DOT":5.06e-6,"MEAN_MOTION_DDOT":0},{"OBJECT_NAME":"STARLINK-31084","OBJECT_ID":"2023-203N","EPOCH":"2025-09-20T03:32:40.581024","MEAN_MOTION":15.25907161,"ECCENTRICITY":0.00017652,"INCLINATION":43.0036,"RA_OF_ASC_NODE":313.2921,"ARG_OF_PERICENTER":278.1079,"MEAN_ANOMALY":81.9572,"EPHEMERIS_TYPE":0,"CLASSIFICATION_TYPE":"U","NORAD_CAT_ID":58630,"ELEMENT_SET_NO":999,"REV_AT_EPOCH":9744,"BSTAR":5.81094e-7,"MEAN_MOTION_DOT":-2.42e-6,"MEAN_MOTION_DDOT":0},{"OBJECT_NAME":"STARLINK-31064","OBJECT_ID":"2023-203P","EPOCH":"2025-09-20T03:26:10.411584","MEAN_MOTION":15.25910697,"ECCENTRICITY":0.00011845,"INCLINATION":43.0011,"RA_OF_ASC_NODE":313.2547,"ARG_OF_PERICENTER":277.2916,"MEAN_ANOMALY":82.7801,"EPHEMERIS_TYPE":0,"CLASSIFICATION_TYPE":"U","NORAD_CAT_ID":58631,"ELEMENT_SET_NO":999,"REV_AT_EPOCH":9861,"BSTAR":3.4820973e-5,"MEAN_MOTION_DOT":6.54e-6,"MEAN_MOTION_DDOT":0},{"OBJECT_NAME":"STARLINK-31081","OBJECT_ID":"2023-203Q","EPOCH":"2025-09-19T13:14:35.238336","MEAN_MOTION":15.25899949,"ECCENTRICITY":6.954e-5,"INCLINATION":43.0002,"RA_OF_ASC_NODE":316.5529,"ARG_OF_PERICENTER":242.8155,"MEAN_ANOMALY":117.2625,"EPHEMERIS_TYPE":0,"CLASSIFICATION_TYPE":"U","NORAD_CAT_ID":58632,"ELEMENT_SET_NO":999,"REV_AT_EPOCH":9858,"BSTAR":9.3423441e-5,"MEAN_MOTION_DOT":2.187e-5,"MEAN_MOTION_DDOT":0},{"OBJECT_NAME":"STARLINK-31022","OBJECT_ID":"2023-203R","EPOCH":"2025-09-20T03:29:25.879488","MEAN_MOTION":15.25908269,"ECCENTRICITY":0.00011605,"INCLINATION":43.0005,"RA_OF_ASC_NODE":313.2729,"ARG_OF_PERICENTER":278.6439,"MEAN_ANOMALY":81.4281,"EPHEMERIS_TYPE":0,"CLASSIFICATION_TYPE":"U","NORAD_CAT_ID":58633,"ELEMENT_SET_NO":999,"REV_AT_EPOCH":9867,"BSTAR":1.6228627e-5,"MEAN_MOTION_DOT":1.67e-6,"MEAN_MOTION_DDOT":0},{"OBJECT_NAME":"STARLINK-31025","OBJECT_ID":"2023-203S","EPOCH":"2025-09-20T03:09:04.572288","MEAN_MOTION":15.25909435,"ECCENTRICITY":0.0001454,"INCLINATION":42.9996,"RA_OF_ASC_NODE":309.6526,"ARG_OF_PERICENTER":253.8426,"MEAN_ANOMALY":106.2265,"EPHEMERIS_TYPE":0,"CLASSIFICATION_TYPE":"U","NORAD_CAT_ID":58634,"ELEMENT_SET_NO":999,"REV_AT_EPOCH":9871,"BSTAR":2.2002021e-5,"MEAN_MOTION_DOT":3.18e-6,"MEAN_MOTION_DDOT":0},{"OBJECT_NAME":"STARLINK-31018","OBJECT_ID":"2023-203T","EPOCH":"2025-09-20T20:28:15.320640","MEAN_MOTION":15.27579505,"ECCENTRICITY":0.00010199,"INCLINATION":43.0016,"RA_OF_ASC_NODE":306.543,"ARG_OF_PERICENTER":247.6198,"MEAN_ANOMALY":112.4545,"EPHEMERIS_TYPE":0,"CLASSIFICATION_TYPE":"U","NORAD_CAT_ID":58635,"ELEMENT_SET_NO":999,"REV_AT_EPOCH":9881,"BSTAR":7.6713548e-5,"MEAN_MOTION_DOT":1.85e-5,"MEAN_MOTION_DDOT":0},{"OBJECT_NAME":"STARLINK-31008","OBJECT_ID":"2023-203U","EPOCH":"2025-09-20T03:16:14.272320","MEAN_MOTION":15.27582119,"ECCENTRICITY":0.00014956,"INCLINATION":43.0053,"RA_OF_ASC_NODE":310.6279,"ARG_OF_PERICENTER":275.3438,"MEAN_ANOMALY":84.7243,"EPHEMERIS_TYPE":0,"CLASSIFICATION_TYPE":"U","NORAD_CAT_ID":58636,"ELEMENT_SET_NO":999,"REV_AT_EPOCH":9870,"BSTAR":3.6973829e-5,"MEAN_MOTION_DOT":7.55e-6,"MEAN_MOTION_DDOT":0},{"OBJECT_NAME":"STARLINK-31077","OBJECT_ID":"2023-203V","EPOCH":"2025-09-20T20:22:42.202848","MEAN_MOTION":15.27581703,"ECCENTRICITY":0.0001035,"INCLINATION":43.0019,"RA_OF_ASC_NODE":306.5075,"ARG_OF_PERICENTER":256.7643,"MEAN_ANOMALY":103.3093,"EPHEMERIS_TYPE":0,"CLASSIFICATION_TYPE":"U","NORAD_CAT_ID":58637,"ELEMENT_SET_NO":999,"REV_AT_EPOCH":9881,"BSTAR":3.0524396e-5,"MEAN_MOTION_DOT":5.78e-6,"MEAN_MOTION_DDOT":0},{"OBJECT_NAME":"STARLINK-31078","OBJECT_ID":"2023-203W","EPOCH":"2025-09-20T20:17:09.468672","MEAN_MOTION":15.27570554,"ECCENTRICITY":0.00012877,"INCLINATION":43.0058,"RA_OF_ASC_NODE":306.4808,"ARG_OF_PERICENTER":255.4769,"MEAN_ANOMALY":104.594,"EPHEMERIS_TYPE":0,"CLASSIFICATION_TYPE":"U","NORAD_CAT_ID":58638,"ELEMENT_SET_NO":999,"REV_AT_EPOCH":9758,"BSTAR":0.00020514872,"MEAN_MOTION_DOT":5.386e-5,"MEAN_MOTION_DDOT":0},{"OBJECT_NAME":"STARLINK-31070","OBJECT_ID":"2023-203X","EPOCH":"2025-09-20T03:21:47.031552","MEAN_MOTION":15.27584796,"ECCENTRICITY":0.00013336,"INCLINATION":43.0003,"RA_OF_ASC_NODE":310.6483,"ARG_OF_PERICENTER":242.4812,"MEAN_ANOMALY":117.5904,"EPHEMERIS_TYPE":0,"CLASSIFICATION_TYPE":"U","NORAD_CAT_ID":58639,"ELEMENT_SET_NO":999,"REV_AT_EPOCH":9747,"BSTAR":8.1826487e-5,"MEAN_MOTION_DOT":1.991e-5,"MEAN_MOTION_DDOT":0},{"OBJECT_NAME":"STARLINK-31090","OBJECT_ID":"2023-203Y","EPOCH":"2025-09-20T02:49:39.772416","MEAN_MOTION":15.27583083,"ECCENTRICITY":0.00016185,"INCLINATION":43.0018,"RA_OF_ASC_NODE":302.7002,"ARG_OF_PERICENTER":275.2052,"MEAN_ANOMALY":84.8615,"EPHEMERIS_TYPE":0,"CLASSIFICATION_TYPE":"U","NORAD_CAT_ID":58640,"ELEMENT_SET_NO":999,"REV_AT_EPOCH":9757,"BSTAR":5.5987259e-5,"MEAN_MOTION_DOT":1.279e-5,"MEAN_MOTION_DDOT":0},{"OBJECT_NAME":"STARLINK-31113","OBJECT_ID":"2023-211B","EPOCH":"2025-09-19T16:11:52.070208","MEAN_MOTION":15.27592657,"ECCENTRICITY":0.00010827,"INCLINATION":42.9995,"RA_OF_ASC_NODE":330.7829,"ARG_OF_PERICENTER":260.8834,"MEAN_ANOMALY":99.1896,"EPHEMERIS_TYPE":0,"CLASSIFICATION_TYPE":"U","NORAD_CAT_ID":58668,"ELEMENT_SET_NO":999,"REV_AT_EPOCH":9631,"BSTAR":0.00029255817,"MEAN_MOTION_DOT":7.8e-5,"MEAN_MOTION_DDOT":0},{"OBJECT_NAME":"STARLINK-31128","OBJECT_ID":"2023-211C","EPOCH":"2025-09-20T20:50:44.525760","MEAN_MOTION":15.27587335,"ECCENTRICITY":0.00013158,"INCLINATION":43.0016,"RA_OF_ASC_NODE":324.2559,"ARG_OF_PERICENTER":281.0188,"MEAN_ANOMALY":79.0516,"EPHEMERIS_TYPE":0,"CLASSIFICATION_TYPE":"U","NORAD_CAT_ID":58669,"ELEMENT_SET_NO":999,"REV_AT_EPOCH":9649,"BSTAR":-1.0011581e-5,"MEAN_MOTION_DOT":-5.38e-6,"MEAN_MOTION_DDOT":0},{"OBJECT_NAME":"STARLINK-31083","OBJECT_ID":"2023-211D","EPOCH":"2025-09-19T16:06:20.839392","MEAN_MOTION":15.27518655,"ECCENTRICITY":0.00010015,"INCLINATION":43.0026,"RA_OF_ASC_NODE":330.7538,"ARG_OF_PERICENTER":294.309,"MEAN_ANOMALY":65.7657,"EPHEMERIS_TYPE":0,"CLASSIFICATION_TYPE":"U","NORAD_CAT_ID":58670,"ELEMENT_SET_NO":999,"REV_AT_EPOCH":9631,"BSTAR":0.00057063955,"MEAN_MOTION_DOT":0.00015444,"MEAN_MOTION_DDOT":0},{"OBJECT_NAME":"STARLINK-30828","OBJECT_ID":"2023-211E","EPOCH":"2025-09-20T03:49:49.907424","MEAN_MOTION":15.2757737,"ECCENTRICITY":2.641e-5,"INCLINATION":42.9992,"RA_OF_ASC_NODE":328.3934,"ARG_OF_PERICENTER":311.7464,"MEAN_ANOMALY":48.3365,"EPHEMERIS_TYPE":0,"CLASSIFICATION_TYPE":"U","NORAD_CAT_ID":58671,"ELEMENT_SET_NO":999,"REV_AT_EPOCH":9638,"BSTAR":-1.9313959e-5,"MEAN_MOTION_DOT":-7.93e-6,"MEAN_MOTION_DDOT":0}]
