STARLINK-31091          
1 58629U 23203M   25263.14996439  .00000506  00000+0  29181-4 0  9998
2 58629  43.0009 313.3083 0001566 279.1581  80.9093 15.25912319 97441
STARLINK-31084          
1 58630U 23203N   25263.14769191 -.00000242  00000+0  58109-6 0  9995
2 58630  43.0036 313.2921 0001765 278.1079  81.9572 15.25907161 97447
STARLINK-31064          
1 58631U 23203P   25263.14317606  .00000654  00000+0  34821-4 0  9995
2 58631  43.0011 313.2547 0001184 277.2916  82.7801 15.25910697 98612
STARLINK-31081          
1 58632U 23203Q   25262.55179674  .00002187  00000+0  93423-4 0  9997
2 58632  43.0002 316.5529 0000695 242.8155 117.2625 15.25899949 98588
STARLINK-31022          
1 58633U 23203R   25263.14543842  .00000167  00000+0  16229-4 0  9991
2 58633  43.0005 313.2729 0001160 278.6439  81.4281 15.25908269 98674
STARLINK-31025          
1 58634U 23203S   25263.13130292  .00000318  00000+0  22002-4 0  9996
2 58634  42.9996 309.6526 0001454 253.8426 106.2265 15.25909435 98712
STARLINK-31018          
1 58635U 23203T   25263.85295510  .00001850  00000+0  76714-4 0  9992
2 58635  43.0016 306.5430 0001019 247.6198 112.4545 15.27579505 98816
STARLINK-31008          
1 58636U 23203U   25263.13627630  .00000755  00000+0  36974-4 0  9993
2 58636  43.0053 310.6279 0001495 275.3438  84.7243 15.27582119 98707
STARLINK-31077          
1 58637U 23203V   25263.84909957  .00000578  00000+0  30524-4 0  9995
2 58637  43.0019 306.5075 0001035 256.7643 103.3093 15.27581703 98810
STARLINK-31078          
1 58638U 23203W   25263.84524848  .00005386  00000+0  20515-3 0  9998
2 58638  43.0058 306.4808 0001287 255.4769 104.5940 15.27570554 97580
STARLINK-31070          
1 58639U 23203X   25263.14012768  .00001991  00000+0  81826-4 0  9996
2 58639  43.0003 310.6483 0001333 242.4812 117.5904 15.27584796 97479
STARLINK-31090          
1 58640U 23203Y   25263.11782144  .00001279  00000+0  55987-4 0  9995
2 58640  43.0018 302.7002 0001618 275.2052  84.8615 15.27583083 97576
STARLINK-31113          
1 58668U 23211B   25262.67490822  .00007800  00000+0  29256-3 0  9998
2 58668  42.9995 330.7829 0001082 260.8834  99.1896 15.27592657 96317
STARLINK-31128          
1 58669U 23211C   25263.86857090 -.00000538  00000+0 -10012-4 0  9999
2 58669  43.0016 324.2559 0001315 281.0188  79.0516 15.27587335 96490
STARLINK-31083          
1 58670U 23211D   25262.67107453  .00015444  00000+0  57064-3 0  9997
2 58670  43.0026 330.7538 0001001 294.3090  65.7657 15.27518655 96311
STARLINK-30828          
1 58671U 23211E   25263.15960541 -.00000793  00000+0 -19314-4 0  9997
2 58671  42.9992 328.3934 0000264 311.7464  48.3365 15.27577370 96383
